FENGYUN 1C DEB          
1 30565U 99025ALF 17345.13517222  .00000670  00000-0  47257-3 0  9998
2 30565  98.4703  31.9229 0165082 271.3532 154.1704 13.94853414550580
